NORAD_CAT_ID,OBJECT_NAME,OBJECT_TYPE,EPOCH,MEAN_MOTION,ECCENTRICITY,INCLINATION,RA_OF_ASC_NODE,ARG_OF_PERICENTER,MEAN_ANOMALY,BSTAR,MEAN_MOTION_DOT,MEAN_MOTION_DDOT,TLE_LINE0,TLE_LINE1,TLE_LINE2,SEMIMAJOR_AXIS,PERIOD,APOGEE,PERIGEE,DECAYED
53260.0,STARLINK-4136,PAYLOAD,2024-03-08 04:40:26,15.08843971,0.0001327,53.2155,237.9298,86.5311,273.5832,0.00022078,3.228e-05,0.0,0 STARLINK-4136,1 53260U 22086U   24068.19475661  .00003228  00000-0  22078-3 0  9990,2 53260  53.2155 237.9298 0001327  86.5311 273.5832 15.08843971 90630,6917.868,95.437,540.651,538.815,0.0
53260.0,STARLINK-4136,PAYLOAD,2024-03-08 18:58:54,15.08851722,0.0001379,53.2156,235.2537,84.8398,275.2751,0.00028293,4.219e-05,0.0,0 STARLINK-4136,1 53260U 22086U   24068.79091239  .00004219  00000-0  28293-3 0  9997,2 53260  53.2156 235.2537 0001379  84.8398 275.2751 15.08851722 90543,6917.845,95.437,540.664,538.756,0.0
53260.0,STARLINK-4136,PAYLOAD,2024-03-08 20:34:18,15.08836553,0.000149,53.2159,234.9558,90.462,269.6543,0.00082995,0.00012944,0.0,0 STARLINK-4136,1 53260U 22086U   24068.85716124  .00012944  00000-0  82995-3 0  9994,2 53260  53.2159 234.9558 0001490  90.4620 269.6543 15.08836553 90732,6917.891,95.438,540.787,538.725,0.0
53260.0,STARLINK-4136,PAYLOAD,2024-03-09 10:52:46,15.08841935,0.000161,53.2148,232.2793,80.4872,279.6302,0.00015489,2.178e-05,0.0,0 STARLINK-4136,1 53260U 22086U   24069.45331771  .00002178  00000-0  15489-3 0  9994,2 53260  53.2148 232.2793 0001610  80.4872 279.6302 15.08841935 90828,6917.874,95.437,540.853,538.626,0.0
53260.0,STARLINK-4136,PAYLOAD,2024-03-09 17:14:19,15.08843028,0.0001553,53.2153,231.0899,81.5783,278.5385,0.00015437,2.17e-05,0.0,0 STARLINK-4136,1 53260U 22086U   24069.71827710  .00002170  00000-0  15437-3 0  9991,2 53260  53.2153 231.0899 0001553  81.5783 278.5385 15.08843028 90685,6917.871,95.437,540.81,538.662,0.0
53260.0,STARLINK-4136,PAYLOAD,2024-03-09 22:00:28,15.08845044,0.0001526,53.2134,230.1964,87.71,272.4066,0.00017174,2.447e-05,0.0,0 STARLINK-4136,1 53260U 22086U   24069.91699644  .00002447  00000-0  17174-3 0  9993,2 53260  53.2134 230.1964 0001526  87.7100 272.4066 15.08845044 90890,6917.865,95.437,540.786,538.674,0.0
53260.0,STARLINK-4136,PAYLOAD,2024-03-10 10:43:34,15.08805597,9.08e-05,53.2113,227.816,78.5761,281.5333,-0.00047874,-7.891e-05,0.0,0 STARLINK-4136,1 53260U 22086U   24070.44692926 -.00007891  00000-0 -47874-3 0  9999,2 53260  53.2113 227.8160 0000908  78.5761 281.5333 15.08805597 90798,6917.986,95.44,540.479,539.222,0.0
53260.0,STARLINK-4136,PAYLOAD,2024-03-10 20:15:51,15.08861351,0.0001121,53.2125,226.0325,80.7193,279.3926,0.00028176,4.202e-05,0.0,0 STARLINK-4136,1 53260U 22086U   24070.84434922  .00004202  00000-0  28176-3 0  9998,2 53260  53.2125 226.0325 0001121  80.7193 279.3926 15.08861351 90857,6917.815,95.436,540.456,538.905,0.0
53260.0,STARLINK-4136,PAYLOAD,2024-03-11 20:06:39,15.08845044,0.0001722,53.2124,221.574,85.3021,274.8168,0.00020542,2.983e-05,0.0,0 STARLINK-4136,1 53260U 22086U   24071.83795708  .00002983  00000-0  20542-3 0  9993,2 53260  53.2124 221.5740 0001722  85.3021 274.8168 15.08845044 91002,6917.865,95.437,540.921,538.539,0.0
53260.0,STARLINK-4136,PAYLOAD,2024-03-12 16:46:40,15.08840872,0.0001706,53.2125,217.7078,86.3405,273.7782,5.6598e-05,6.13e-06,0.0,0 STARLINK-4136,1 53260U 22086U   24072.69907782  .00000613  00000-0  56598-4 0  9994,2 53260  53.2125 217.7078 0001706  86.3405 273.7782 15.08840872 91131,6917.878,95.437,540.923,538.563,0.0
53260.0,STARLINK-4136,PAYLOAD,2024-03-13 10:15:55,15.08826617,0.0002074,53.2175,214.4377,87.2527,272.8702,-4.7708e-06,-3.64e-06,0.0,0 STARLINK-4136,1 53260U 22086U   24073.42772922 -.00000364  00000-0 -47708-5 0  9991,2 53260  53.2175 214.4377 0002074  87.2527 272.8702 15.08826617 91241,6917.921,95.438,541.221,538.352,0.0
53260.0,STARLINK-4136,PAYLOAD,2024-03-14 18:03:37,15.08849122,0.0001259,53.2116,208.4887,99.6348,260.4786,0.00023488,3.453e-05,0.0,0 STARLINK-4136,1 53260U 22086U   24074.75251701  .00003453  00000-0  23488-3 0  9992,2 53260  53.2116 208.4887 0001259  99.6348 260.4786 15.08849122 91440,6917.853,95.437,540.588,538.847,0.0
53260.0,STARLINK-4136,PAYLOAD,2024-03-15 08:22:05,15.08842148,0.0001599,53.211,205.8104,96.333,263.7844,7.2895e-05,8.72e-06,0.0,0 STARLINK-4136,1 53260U 22086U   24075.34868018  .00000872  00000-0  72895-4 0  9992,2 53260  53.2110 205.8104 0001599  96.3330 263.7844 15.08842148 91531,6917.874,95.437,540.845,538.633,0.0
53260.0,STARLINK-4136,PAYLOAD,2024-03-16 12:59:02,15.08839759,0.0001749,53.2134,200.4595,95.6867,264.4324,3.5976e-05,2.85e-06,0.0,0 STARLINK-4136,1 53260U 22086U   24076.54100450  .00000285  00000-0  35976-4 0  9991,2 53260  53.2134 200.4595 0001749  95.6867 264.4324 15.08839759 91711,6917.881,95.438,540.956,538.536,0.0
53260.0,STARLINK-4136,PAYLOAD,2024-03-16 14:34:25,15.08837745,0.0001531,53.217,200.1637,90.8585,269.2583,0.00010742,1.422e-05,0.0,0 STARLINK-4136,1 53260U 22086U   24076.60724446  .00001422  00000-0  10742-3 0  9992,2 53260  53.2170 200.1637 0001531  90.8585 269.2583 15.08837745 91902,6917.887,95.438,540.811,538.693,0.0
53260.0,STARLINK-4136,PAYLOAD,2024-03-17 14:25:12,15.08841133,0.0001589,53.2178,195.7049,88.4598,271.6576,0.00011657,1.568e-05,0.0,0 STARLINK-4136,1 53260U 22086U   24077.60084384  .00001568  00000-0  11657-3 0  9990,2 53260  53.2178 195.7049 0001589  88.4598 271.6576 15.08841133 92058,6917.877,95.437,540.841,538.643,0.0
53260.0,STARLINK-4136,PAYLOAD,2024-03-18 11:05:14,15.08833988,0.0001544,53.2174,191.8385,96.3384,263.7784,3.0365e-05,1.95e-06,0.0,0 STARLINK-4136,1 53260U 22086U   24078.46197285  .00000195  00000-0  30365-4 0  9993,2 53260  53.2174 191.8385 0001544  96.3384 263.7784 15.08833988 92003,6917.899,95.438,540.832,538.696,0.0
53260.0,STARLINK-4136,PAYLOAD,2024-03-18 17:26:46,15.08839317,0.0001353,53.217,190.6439,100.0518,260.0627,3.3196e-07,-2.83e-06,0.0,0 STARLINK-4136,1 53260U 22086U   24078.72692961 -.00000283  00000-0  33196-6 0  9999,2 53260  53.2170 190.6439 0001353 100.0518 260.0627 15.08839317 92228,6917.882,95.438,540.683,538.811,0.0
53260.0,STARLINK-4136,PAYLOAD,2024-03-19 10:56:00,15.08856312,0.0001391,53.2176,187.3782,90.7583,269.3568,0.00016391,2.323e-05,0.0,0 STARLINK-4136,1 53260U 22086U   24079.45555685  .00002323  00000-0  16391-3 0  9992,2 53260  53.2176 187.3782 0001391  90.7583 269.3568 15.08856312 92339,6917.831,95.437,540.658,538.733,0.0
53260.0,STARLINK-4136,PAYLOAD,2024-03-19 12:31:22,15.08859298,0.000165,53.2178,187.081,107.2745,252.8428,0.00018695,2.69e-05,0.0,0 STARLINK-4136,1 53260U 22086U   24079.52179353  .00002690  00000-0  18695-3 0  9990,2 53260  53.2178 187.0810 0001650 107.2745 252.8428 15.08859298 92161,6917.821,95.436,540.828,538.545,0.0
53260.0,STARLINK-4136,PAYLOAD,2024-03-20 10:46:48,15.08833741,0.0001508,53.2154,182.9145,76.5989,283.5171,-4.3772e-05,-9.84e-06,0.0,0 STARLINK-4136,1 53260U 22086U   24080.44917234 -.00000984  00000-0 -43772-4 0  9992,2 53260  53.2154 182.9145 0001508  76.5989 283.5171 15.08833741 92307,6917.9,95.438,540.808,538.721,0.0
53260.0,STARLINK-4136,PAYLOAD,2024-03-20 13:57:34,15.08833962,0.0001476,53.2167,182.3209,81.3767,278.7392,-5.3909e-05,-1.146e-05,0.0,0 STARLINK-4136,1 53260U 22086U   24080.58165250 -.00001146  00000-0 -53909-4 0  9994,2 53260  53.2167 182.3209 0001476  81.3767 278.7392 15.08833962 92506,6917.899,95.438,540.785,538.743,0.0
53260.0,STARLINK-4136,PAYLOAD,2024-03-21 12:12:58,15.08851788,0.0001516,53.2164,178.1584,79.3967,280.7196,9.4946e-05,1.224e-05,0.0,0 STARLINK-4136,1 53260U 22086U   24081.50900548  .00001224  00000-0  94946-4 0  9995,2 53260  53.2164 178.1584 0001516  79.3967 280.7196 15.08851788 92462,6917.844,95.437,540.758,538.661,0.0
53260.0,STARLINK-4136,PAYLOAD,2024-03-21 13:48:21,15.08853128,0.0001589,53.2169,177.8613,67.9942,292.1219,0.00028586,4.266e-05,0.0,0 STARLINK-4136,1 53260U 22086U   24081.57524611  .00004266  00000-0  28586-3 0  9990,2 53260  53.2169 177.8613 0001589  67.9942 292.1219 15.08853128 92656,6917.84,95.437,540.805,538.606,0.0
53260.0,STARLINK-4136,PAYLOAD,2024-03-21 16:59:06,15.08862208,0.0001345,53.2162,177.264,96.8962,263.2184,0.0004587,7.024e-05,0.0,0 STARLINK-4136,1 53260U 22086U   24081.70771837  .00007024  00000-0  45870-3 0  9999,2 53260  53.2162 177.2640 0001345  96.8962 263.2184 15.08862208 92497,6917.813,95.436,540.608,538.747,0.0
53260.0,STARLINK-4136,PAYLOAD,2024-03-22 05:42:12,15.08847171,0.0001539,53.2155,174.885,75.612,284.5043,0.00026357,3.91e-05,0.0,0 STARLINK-4136,1 53260U 22086U   24082.23764715  .00003910  00000-0  26357-3 0  9994,2 53260  53.2155 174.8850 0001539  75.6120 284.5043 15.08847171 92572,6917.858,95.437,540.788,538.659,0.0
53260.0,STARLINK-4136,PAYLOAD,2024-03-22 12:03:44,15.08866665,0.0001638,53.2163,173.6984,97.1096,263.0083,0.00056506,8.723e-05,0.0,0 STARLINK-4136,1 53260U 22086U   24082.50259836  .00008723  00000-0  56506-3 0  9993,2 53260  53.2163 173.6984 0001638  97.1096 263.0083 15.08866665 92617,6917.799,95.436,540.797,538.531,0.0
53260.0,STARLINK-4136,PAYLOAD,2024-03-22 13:39:07,15.08868934,0.0001925,53.2159,173.4027,60.5881,299.5303,0.00079238,0.00012355,0.0,0 STARLINK-4136,1 53260U 22086U   24082.56883989  .00012355  00000-0  79238-3 0  9994,2 53260  53.2159 173.4027 0001925  60.5881 299.5303 15.08868934 92804,6917.792,95.436,540.989,538.325,0.0
53260.0,STARLINK-4136,PAYLOAD,2024-03-23 05:32:59,15.08832539,0.000157,53.218,170.4265,119.4469,240.668,0.00017429,2.486e-05,0.0,0 STARLINK-4136,1 53260U 22086U   24083.23124614  .00002486  00000-0  17429-3 0  9990,2 53260  53.2180 170.4265 0001570 119.4469 240.6680 15.08832539 92729,6917.903,95.438,540.854,538.682,0.0
53260.0,STARLINK-4136,PAYLOAD,2024-03-23 11:54:32,15.08829529,0.0001433,53.2166,169.2368,107.6172,252.4977,0.0013587,0.00021396,0.0,0 STARLINK-4136,1 53260U 22086U   24083.49621265  .00021396  00000-0  13587-2 0  9993,2 53260  53.2166 169.2368 0001433 107.6172 252.4977 15.08829529 92940,6917.912,95.438,540.769,538.786,0.0
